NORAD_CAT_ID,OBJECT_NAME,OBJECT_TYPE,EPOCH,MEAN_MOTION,ECCENTRICITY,INCLINATION,RA_OF_ASC_NODE,ARG_OF_PERICENTER,MEAN_ANOMALY,BSTAR,MEAN_MOTION_DOT,MEAN_MOTION_DDOT,TLE_LINE0,TLE_LINE1,TLE_LINE2,SEMIMAJOR_AXIS,PERIOD,APOGEE,PERIGEE,DECAYED
53855.0,STARLINK-4703,PAYLOAD,2023-09-14 17:17:07,15.0882763,0.000118,53.2183,45.4076,70.6363,289.4757,-5.6925e-05,-1.193e-05,0.0,0 STARLINK-4703,1 53855U 22114AP  23257.72022305 -.00001193  00000-0 -56925-4 0  9993,2 53855  53.2183  45.4076 0001180  70.6363 289.4757 15.08827630 55519,6917.918,95.438,540.6,538.967,0.0
53855.0,STARLINK-4703,PAYLOAD,2023-09-14 20:27:53,15.08827871,0.0001172,53.2182,44.8124,75.0295,285.0827,-6.3063e-05,-1.291e-05,0.0,0 STARLINK-4703,1 53855U 22114AP  23257.85270305 -.00001291  00000-0 -63063-4 0  9992,2 53855  53.2182  44.8124 0001172  75.0295 285.0827 15.08827871 56078,6917.917,95.438,540.593,538.972,0.0
53855.0,STARLINK-4703,PAYLOAD,2023-09-15 02:49:25,15.0883245,0.0001126,53.2181,43.6235,75.0513,285.0604,2.145e-05,5.4e-07,0.0,0 STARLINK-4703,1 53855U 22114AP  23258.11765980  .00000054  00000-0  21450-4 0  9998,2 53855  53.2181  43.6235 0001126  75.0513 285.0604 15.08832450 55575,6917.903,95.438,540.547,538.99,0.0
53855.0,STARLINK-4703,PAYLOAD,2023-09-15 13:57:07,15.08842943,9.95e-05,53.2179,41.5416,72.9432,287.167,0.00011435,1.533e-05,0.0,0 STARLINK-4703,1 53855U 22114AP  23258.58133151  .00001533  00000-0  11435-3 0  9992,2 53855  53.2179  41.5416 0000995  72.9432 287.1670 15.08842943 56181,6917.871,95.437,540.425,539.048,0.0
53855.0,STARLINK-4703,PAYLOAD,2023-09-15 17:07:52,15.08851033,0.000132,53.2183,40.9471,89.2483,270.866,9.9281e-05,1.293e-05,0.0,0 STARLINK-4703,1 53855U 22114AP  23258.71380721  .00001293  00000-0  99281-4 0  9993,2 53855  53.2183  40.9471 0001320  89.2483 270.8660 15.08851033 55660,6917.847,95.437,540.625,538.799,0.0
53855.0,STARLINK-4703,PAYLOAD,2023-09-16 10:37:08,15.08834063,0.0001225,53.2183,37.6763,71.1341,288.9784,0.00021058,3.065e-05,0.0,0 STARLINK-4703,1 53855U 22114AP  23259.44245701  .00003065  00000-0  21058-3 0  9997,2 53855  53.2183  37.6763 0001225  71.1341 288.9784 15.08834063 55777,6917.899,95.438,540.611,538.916,0.0
53855.0,STARLINK-4703,PAYLOAD,2023-09-16 13:47:54,15.0882736,0.0001431,53.2195,37.0828,66.6438,293.4704,0.00032891,4.949e-05,0.0,0 STARLINK-4703,1 53855U 22114AP  23259.57493934  .00004949  00000-0  32891-3 0  9993,2 53855  53.2195  37.0828 0001431  66.6438 293.4704 15.08827360 56339,6917.919,95.438,540.774,538.794,0.0
53855.0,STARLINK-4703,PAYLOAD,2023-09-17 08:52:32,15.08841629,0.0001048,53.2191,33.5142,71.117,288.9935,0.00014455,2.014e-05,0.0,0 STARLINK-4703,1 53855U 22114AP  23260.36981525  .00002014  00000-0  14455-3 0  9997,2 53855  53.2191  33.5142 0001048  71.1170 288.9935 15.08841629 56455,6917.875,95.437,540.465,539.015,0.0
53855.0,STARLINK-4703,PAYLOAD,2023-09-17 15:14:04,15.08851482,0.000137,53.2194,32.3252,74.0814,286.0329,7.7291e-05,9.43e-06,0.0,0 STARLINK-4703,1 53855U 22114AP  23260.63477022  .00000943  00000-0  77291-4 0  9996,2 53855  53.2194  32.3252 0001370  74.0814 286.0329 15.08851482 55950,6917.845,95.437,540.658,538.763,0.0
53855.0,STARLINK-4703,PAYLOAD,2023-09-18 08:43:19,15.08841676,0.0001669,53.2201,29.0555,75.6041,284.5136,5.8163e-05,6.38e-06,0.0,0 STARLINK-4703,1 53855U 22114AP  23261.36341575  .00000638  00000-0  58163-4 0  9998,2 53855  53.2201  29.0555 0001669  75.6041 284.5136 15.08841676 56064,6917.875,95.437,540.895,538.586,0.0
53855.0,STARLINK-4703,PAYLOAD,2023-09-18 13:29:28,15.08840863,0.0001406,53.2203,28.1636,78.3126,281.8024,5.0451e-05,5.15e-06,0.0,0 STARLINK-4703,1 53855U 22114AP  23261.56213511  .00000515  00000-0  50451-4 0  9994,2 53855  53.2203  28.1636 0001406  78.3126 281.8024 15.08840863 56635,6917.878,95.438,540.715,538.77,0.0
53855.0,STARLINK-4703,PAYLOAD,2023-09-18 15:04:51,15.08843459,0.0001373,53.2209,27.8666,73.6876,286.4267,5.134e-05,5.29e-06,0.0,0 STARLINK-4703,1 53855U 22114AP  23261.62837345  .00000529  00000-0  51340-4 0  9991,2 53855  53.2209  27.8666 0001373  73.6876 286.4267 15.08843459 56648,6917.87,95.437,540.685,538.785,0.0
53855.0,STARLINK-4703,PAYLOAD,2023-09-19 14:55:37,15.08854625,0.0001478,53.2205,23.4043,97.7996,262.3164,9.3636e-05,1.203e-05,0.0,0 STARLINK-4703,1 53855U 22114AP  23262.62196132  .00001203  00000-0  93636-4 0  9998,2 53855  53.2205  23.4043 0001478  97.7996 262.3164 15.08854625 56254,6917.836,95.437,540.723,538.678,0.0
53855.0,STARLINK-4703,PAYLOAD,2023-09-20 13:11:03,15.08821798,0.0001394,53.2198,19.2408,102.1153,257.9995,-0.00016107,-2.849e-05,0.0,0 STARLINK-4703,1 53855U 22114AP  23263.54934707 -.00002849  00000-0 -16107-3 0  9994,2 53855  53.2198  19.2408 0001394 102.1153 257.9995 15.08821798 56398,6917.936,95.439,540.765,538.837,0.0
53855.0,STARLINK-4703,PAYLOAD,2023-09-20 14:46:26,15.08822293,0.0001419,53.2198,18.9433,105.0224,255.0925,-0.00015133,-2.694e-05,0.0,0 STARLINK-4703,1 53855U 22114AP  23263.61558719 -.00002694  00000-0 -15133-3 0  9993,2 53855  53.2198  18.9433 0001419 105.0224 255.0925 15.08822293 56945,6917.935,95.439,540.781,538.818,0.0
53855.0,STARLINK-4703,PAYLOAD,2023-09-21 08:15:40,15.08838131,0.000134,53.219,15.6731,113.3148,246.7985,1.1689e-05,-1.02e-06,0.0,0 STARLINK-4703,1 53855U 22114AP  23264.34422100 -.00000102  00000-0  11689-4 0  9992,2 53855  53.2190  15.6731 0001340 113.3148 246.7985 15.08838131 56516,6917.886,95.438,540.678,538.824,0.0
53855.0,STARLINK-4703,PAYLOAD,2023-09-21 13:01:49,15.08848298,0.000132,53.2193,14.7819,98.1696,261.9446,0.00018688,2.688e-05,0.0,0 STARLINK-4703,1 53855U 22114AP  23264.54293775  .00002688  00000-0  18688-3 0  9993,2 53855  53.2193  14.7819 0001320  98.1696 261.9446 15.08848298 57081,6917.855,95.437,540.633,538.807,0.0
53855.0,STARLINK-4703,PAYLOAD,2023-09-22 08:06:28,15.08832637,0.0001212,53.2189,11.2111,102.2621,257.8507,0.00013653,1.885e-05,0.0,0 STARLINK-4703,1 53855U 22114AP  23265.33782566  .00001885  00000-0  13653-3 0  9997,2 53855  53.2189  11.2111 0001212 102.2621 257.8507 15.08832637 56663,6917.903,95.438,540.606,538.929,0.0
53855.0,STARLINK-4703,PAYLOAD,2023-09-22 12:52:37,15.0883839,0.0001299,53.2195,10.3208,103.1836,256.9302,0.000223,3.263e-05,0.0,0 STARLINK-4703,1 53855U 22114AP  23265.53654410  .00003263  00000-0  22300-3 0  9996,2 53855  53.2195  10.3208 0001299 103.1836 256.9302 15.08838390 57239,6917.885,95.438,540.649,538.852,0.0
53855.0,STARLINK-4703,PAYLOAD,2023-09-22 17:38:46,15.0884671,0.0001317,53.2195,9.4281,104.7266,255.3872,0.00028988,4.329e-05,0.0,0 STARLINK-4703,1 53855U 22114AP  23265.73525916  .00004329  00000-0  28988-3 0  9998,2 53855  53.2195   9.4281 0001317 104.7266 255.3872 15.08846710 56727,6917.86,95.437,540.636,538.814,0.0
53855.0,STARLINK-4703,PAYLOAD,2023-09-23 12:43:23,15.08849186,0.0001156,53.2177,5.8594,92.2492,267.8633,9.9534e-07,-2.72e-06,0.0,0 STARLINK-4703,1 53855U 22114AP  23266.53013595 -.00000272  00000-0  99534-6 0  9994,2 53855  53.2177   5.8594 0001156  92.2492 267.8633 15.08849186 57383,6917.852,95.437,540.517,538.918,0.0
53855.0,STARLINK-4703,PAYLOAD,2023-09-24 10:58:47,15.08843297,0.0001459,53.2171,1.6963,99.2695,260.8462,0.00015773,2.223e-05,0.0,0 STARLINK-4703,1 53855U 22114AP  23267.45749813  .00002223  00000-0  15773-3 0  9992,2 53855  53.2171   1.6963 0001459  99.2695 260.8462 15.08843297 56984,6917.87,95.437,540.745,538.726,0.0
53855.0,STARLINK-4703,PAYLOAD,2023-09-24 14:09:33,15.08850812,0.0001226,53.2174,1.1011,93.2459,266.8673,0.00034407,5.194e-05,0.0,0 STARLINK-4703,1 53855U 22114AP  23267.58997582  .00005194  00000-0  34407-3 0  9999,2 53855  53.2174   1.1011 0001226  93.2459 266.8673 15.08850812 57544,6917.847,95.437,540.56,538.864,0.0
53855.0,STARLINK-4703,PAYLOAD,2023-09-25 06:03:25,15.08850808,0.000118,53.2177,358.1281,99.7449,260.3676,0.00043529,6.649e-05,0.0,0 STARLINK-4703,1 53855U 22114AP  23268.25237745  .00006649  00000-0  43529-3 0  9993,2 53855  53.2177 358.1281 0001180  99.7449 260.3676 15.08850808 57109,6917.847,95.437,540.529,538.896,0.0
53855.0,STARLINK-4703,PAYLOAD,2023-09-25 12:24:57,15.08854168,0.0001356,53.2174,356.9375,102.8742,257.2401,0.00074198,0.00011545,0.0,0 STARLINK-4703,1 53855U 22114AP  23268.51733648  .00011545  00000-0  74198-3 0  9992,2 53855  53.2174 356.9375 0001356 102.8742 257.2401 15.08854168 57680,6917.837,95.437,540.64,538.764,0.0
53855.0,STARLINK-4703,PAYLOAD,2023-09-26 12:15:45,15.08839398,0.0001423,53.2178,352.476,92.8722,267.2433,0.00039453,5.996e-05,0.0,0 STARLINK-4703,1 53855U 22114AP  23269.51094368  .00005996  00000-0  39453-3 0  9990,2 53855  53.2178 352.4760 0001423  92.8722 267.2433 15.08839398 57295,6917.882,95.438,540.732,538.763,0.0
53855.0,STARLINK-4703,PAYLOAD,2023-09-27 08:55:46,15.08842146,0.0001476,53.2184,348.612,93.22,266.8961,0.00022455,3.288e-05,0.0,0 STARLINK-4703,1 53855U 22114AP  23270.37206571  .00003288  00000-0  22455-3 0  9993,2 53855  53.2184 348.6120 0001476  93.2200 266.8961 15.08842146 57424,6917.874,95.437,540.76,538.718,0.0
53855.0,STARLINK-4703,PAYLOAD,2023-09-27 12:06:32,15.08845155,0.0001463,53.2185,348.0193,83.2428,276.8731,0.00031682,4.759e-05,0.0,0 STARLINK-4703,1 53855U 22114AP  23270.50454547  .00004759  00000-0  31682-3 0  9992,2 53855  53.2185 348.0193 0001463  83.2428 276.8731 15.08845155 57986,6917.865,95.437,540.742,538.718,0.0
53855.0,STARLINK-4703,PAYLOAD,2023-09-28 11:57:20,15.08839341,0.0001553,53.2185,343.5585,83.621,276.4959,0.00016626,2.359e-05,0.0,0 STARLINK-4703,1 53855U 22114AP  23271.49815086  .00002359  00000-0  16626-3 0  9995,2 53855  53.2185 343.5585 0001553  83.6210 276.4959 15.08839341 57599,6917.882,95.438,540.822,538.673,0.0
53855.0,STARLINK-4703,PAYLOAD,2023-09-29 10:12:44,15.08839488,0.0001545,53.2179,339.3959,85.804,274.3129,0.00010884,1.445e-05,0.0,0 STARLINK-4703,1 53855U 22114AP  23272.42551246  .00001445  00000-0  10884-3 0  9999,2 53855  53.2179 339.3959 0001545  85.8040 274.3129 15.08839488 58270,6917.882,95.438,540.816,538.678,0.0
